{
  "norad_id": 67794,
  "name": "KUIPER-00276",
  "history": [
    {
      "epoch": "2026-04-17T12:15:47.623968Z",
      "apogee_km": 494.2988892111971,
      "perigee_km": 471.0833562261032,
      "latitude_deg": 2.239998410294863e-05,
      "longitude_deg": 4.873808765337989,
      "height_km": 495.0345692950383,
      "semi_major_axis_km": 6860.82812271865,
      "eccentricity": 0.00169189,
      "inclination_deg": 51.887,
      "raan_deg": 34.4655,
      "arg_perigee_deg": 183.8638,
      "mean_anomaly_deg": 176.2217,
      "mean_motion_rev_day": 15.27699557
    },
    {
      "epoch": "2026-04-18T11:48:51.124032Z",
      "apogee_km": 494.26110471515767,
      "perigee_km": 471.50378931135856,
      "latitude_deg": -4.8710408304765215e-05,
      "longitude_deg": 5.969066187007487,
      "height_km": 495.0082282494011,
      "semi_major_axis_km": 6861.019447013257,
      "eccentricity": 0.00165845,
      "inclination_deg": 51.8853,
      "raan_deg": 29.7926,
      "arg_perigee_deg": 182.886,
      "mean_anomaly_deg": 177.2029,
      "mean_motion_rev_day": 15.27635656
    },
    {
      "epoch": "2026-04-19T11:21:58.843008Z",
      "apogee_km": 494.774582025957,
      "perigee_km": 471.5777173033084,
      "latitude_deg": 3.377312747303402e-05,
      "longitude_deg": 7.044215347933542,
      "height_km": 495.45421003351515,
      "semi_major_axis_km": 6861.313149664633,
      "eccentricity": 0.00169041,
      "inclination_deg": 51.8865,
      "raan_deg": 25.1171,
      "arg_perigee_deg": 186.8659,
      "mean_anomaly_deg": 173.2095,
      "mean_motion_rev_day": 15.2753757
    },
    {
      "epoch": "2026-04-20T10:55:17.898528Z",
      "apogee_km": 495.90941190425747,
      "perigee_km": 471.7329491251767,
      "latitude_deg": -2.167087404731528e-05,
      "longitude_deg": 8.075690906596819,
      "height_km": 496.4539234384145,
      "semi_major_axis_km": 6861.958180514716,
      "eccentricity": 0.00176163,
      "inclination_deg": 51.8852,
      "raan_deg": 20.4454,
      "arg_perigee_deg": 190.9264,
      "mean_anomaly_deg": 169.1338,
      "mean_motion_rev_day": 15.2732219
    },
    {
      "epoch": "2026-04-21T10:28:37.618464Z",
      "apogee_km": 496.20296332300404,
      "perigee_km": 471.312127049795,
      "latitude_deg": 1.579782182909423e-05,
      "longitude_deg": 9.102262294819894,
      "height_km": 496.3576528366539,
      "semi_major_axis_km": 6861.894545186399,
      "eccentricity": 0.0018137,
      "inclination_deg": 51.8841,
      "raan_deg": 15.7715,
      "arg_perigee_deg": 198.015,
      "mean_anomaly_deg": 162.0192,
      "mean_motion_rev_day": 15.27343436
    },
    {
      "epoch": "2026-04-22T00:36:37.762848Z",
      "apogee_km": 495.7662693346301,
      "perigee_km": 471.69922186370604,
      "latitude_deg": -2.05927164516267e-05,
      "longitude_deg": 153.71999374208514,
      "height_km": 496.0688268003885,
      "semi_major_axis_km": 6861.869745599168,
      "eccentricity": 0.00175368,
      "inclination_deg": 51.883,
      "raan_deg": 12.9703,
      "arg_perigee_deg": 195.9243,
      "mean_anomaly_deg": 164.119,
      "mean_motion_rev_day": 15.27351716
    },
    {
      "epoch": "2026-04-23T00:09:56.470176Z",
      "apogee_km": 495.5953890643559,
      "perigee_km": 471.7867669455409,
      "latitude_deg": -2.6208143258014193e-05,
      "longitude_deg": 154.74996223538852,
      "height_km": 495.5978812517691,
      "semi_major_axis_km": 6861.828078004948,
      "eccentricity": 0.00173486,
      "inclination_deg": 51.8834,
      "raan_deg": 8.2956,
      "arg_perigee_deg": 200.6178,
      "mean_anomaly_deg": 159.4106,
      "mean_motion_rev_day": 15.27365628
    },
    {
      "epoch": "2026-04-24T20:08:05.608320Z",
      "apogee_km": 496.3508877881113,
      "perigee_km": 471.0581399679568,
      "latitude_deg": -8.484634594681591e-06,
      "longitude_deg": -155.31465314342964,
      "height_km": 495.7945006144912,
      "semi_major_axis_km": 6861.841513878034,
      "eccentricity": 0.001843,
      "inclination_deg": 51.8831,
      "raan_deg": 359.5748,
      "arg_perigee_deg": 206.429,
      "mean_anomaly_deg": 153.5754,
      "mean_motion_rev_day": 15.27361142
    },
    {
      "epoch": "2026-04-25T19:41:26.415168Z",
      "apogee_km": 496.33923910720296,
      "perigee_km": 471.3561252762793,
      "latitude_deg": -2.1459246307286667e-06,
      "longitude_deg": -154.29174508662902,
      "height_km": 495.3115132153373,
      "semi_major_axis_km": 6861.984682191741,
      "eccentricity": 0.0018204,
      "inclination_deg": 51.8816,
      "raan_deg": 354.9018,
      "arg_perigee_deg": 211.077,
      "mean_anomaly_deg": 148.9137,
      "mean_motion_rev_day": 15.27313342
    },
    {
      "epoch": "2026-04-26T20:49:14.184192Z",
      "apogee_km": 498.1860468149289,
      "perigee_km": 471.5757929135234,
      "latitude_deg": 5.507424077448041e-05,
      "longitude_deg": -177.26118735987382,
      "height_km": 495.9467384381312,
      "semi_major_axis_km": 6863.017919864226,
      "eccentricity": 0.00193867,
      "inclination_deg": 51.8819,
      "raan_deg": 349.9134,
      "arg_perigee_deg": 219.2619,
      "mean_anomaly_deg": 140.6959,
      "mean_motion_rev_day": 15.26968446
    },
    {
      "epoch": "2026-04-27T20:22:56.732736Z",
      "apogee_km": 498.1955760739229,
      "perigee_km": 471.645152354723,
      "latitude_deg": 1.4056328096679717e-05,
      "longitude_deg": -176.32375371819955,
      "height_km": 496.26165221503715,
      "semi_major_axis_km": 6863.057364214323,
      "eccentricity": 0.0019343,
      "inclination_deg": 51.8825,
      "raan_deg": 345.2458,
      "arg_perigee_deg": 217.1808,
      "mean_anomaly_deg": 142.7836,
      "mean_motion_rev_day": 15.26955282
    },
    {
      "epoch": "2026-04-28T19:56:47.186016Z",
      "apogee_km": 498.5867894889443,
      "perigee_km": 472.539048296745,
      "latitude_deg": -3.2801101995048134e-06,
      "longitude_deg": -175.42182823306166,
      "height_km": 496.0105408141156,
      "semi_major_axis_km": 6863.699918892844,
      "eccentricity": 0.0018975,
      "inclination_deg": 51.8833,
      "raan_deg": 340.5757,
      "arg_perigee_deg": 221.9674,
      "mean_anomaly_deg": 137.9855,
      "mean_motion_rev_day": 15.26740865
    }
  ]
}